{
  "type": "FeatureCollection",
  "features": [
    {
      "type": "Feature",
      "properties": {
        "norad_id": 66432,
        "name": "STARLINK-35446",
        "group": "last-30-days",
        "lat": 42.30544155889093,
        "lon": 147.04995932861064,
        "alt_km": 437.9207315777485,
        "timestamp": "2025-12-08T23:34:02.738565+00:00",
        "meta_object_name": "STARLINK-35446",
        "meta_object_id": "2025-259L",
        "meta_epoch": "2025-12-08T14:00:01.999872",
        "meta_mean_motion": 15.40625128,
        "meta_eccentricity": 9.17e-05,
        "meta_inclination": 43.0007,
        "meta_ra_of_asc_node": 71.7573,
        "meta_arg_of_pericenter": 282.4519,
        "meta_mean_anomaly": 104.8935,
        "meta_ephemeris_type": 0,
        "meta_classification_type": "U",
        "meta_norad_cat_id": 66432,
        "meta_element_set_no": 999,
        "meta_rev_at_epoch": 561,
        "meta_bstar": 0.001937707,
        "meta_mean_motion_dot": 0.00081303,
        "meta_mean_motion_ddot": 0,
        "tle_line1": "1 66432U 25259L   25342.58335648  .00081303  00000+0  19377-2 0  9995",
        "tle_line2": "2 66432  43.0007  71.7573 0000917 282.4519 104.8935 15.40625128  5611"
      },
      "geometry": {
        "type": "Point",
        "coordinates": [
          147.04995932861064,
          42.30544155889093
        ]
      }
    },
    {
      "type": "Feature",
      "properties": {
        "norad_id": 66433,
        "name": "STARLINK-35457",
        "group": "last-30-days",
        "lat": 42.89320955867036,
        "lon": 163.89011367321473,
        "alt_km": 437.9212542870582,
        "timestamp": "2025-12-08T23:34:02.738575+00:00",
        "meta_object_name": "STARLINK-35457",
        "meta_object_id": "2025-259M",
        "meta_epoch": "2025-12-08T14:00:01.999872",
        "meta_mean_motion": 15.40651811,
        "meta_eccentricity": 0.00010934,
        "meta_inclination": 43.0001,
        "meta_ra_of_asc_node": 71.7286,
        "meta_arg_of_pericenter": 254.786,
        "meta_mean_anomaly": 144.9269,
        "meta_ephemeris_type": 0,
        "meta_classification_type": "U",
        "meta_norad_cat_id": 66433,
        "meta_element_set_no": 999,
        "meta_rev_at_epoch": 561,
        "meta_bstar": 0.0017270842,
        "meta_mean_motion_dot": 0.00072412,
        "meta_mean_motion_ddot": 0,
        "tle_line1": "1 66433U 25259M   25342.58335648  .00072412  00000+0  17271-2 0  9998",
        "tle_line2": "2 66433  43.0001  71.7286 0001093 254.7860 144.9269 15.40651811  5617"
      },
      "geometry": {
        "type": "Point",
        "coordinates": [
          163.89011367321473,
          42.89320955867036
        ]
      }
    },
    {
      "type": "Feature",
      "properties": {
        "norad_id": 66434,
        "name": "STARLINK-35389",
        "group": "last-30-days",
        "lat": 40.99721842915726,
        "lon": -179.46765004396798,
        "alt_km": 438.1098231973847,
        "timestamp": "2025-12-08T23:34:02.738585+00:00",
        "meta_object_name": "STARLINK-35389",
        "meta_object_id": "2025-259N",
        "meta_epoch": "2025-12-08T14:00:01.999872",
        "meta_mean_motion": 15.4062858,
        "meta_eccentricity": 8.844e-05,
        "meta_inclination": 43.0005,
        "meta_ra_of_asc_node": 71.6974,
        "meta_arg_of_pericenter": 293.6012,
        "meta_mean_anomaly": 118.6362,
        "meta_ephemeris_type": 0,
        "meta_classification_type": "U",
        "meta_norad_cat_id": 66434,
        "meta_element_set_no": 999,
        "meta_rev_at_epoch": 561,
        "meta_bstar": 0.0021794045,
        "meta_mean_motion_dot": 0.00091617,
        "meta_mean_motion_ddot": 0,
        "tle_line1": "1 66434U 25259N   25342.58335648  .00091617  00000+0  21794-2 0  9992",
        "tle_line2": "2 66434  43.0005  71.6974 0000884 293.6012 118.6362 15.40628580  5612"
      },
      "geometry": {
        "type": "Point",
        "coordinates": [
          -179.46765004396798,
          40.99721842915726
        ]
      }
    },
    {
      "type": "Feature",
      "properties": {
        "norad_id": 66435,
        "name": "STARLINK-35502",
        "group": "last-30-days",
        "lat": 36.8935933138097,
        "lon": -164.2900954688568,
        "alt_km": 439.747077736286,
        "timestamp": "2025-12-08T23:34:02.738600+00:00",
        "meta_object_name": "STARLINK-35502",
        "meta_object_id": "2025-259P",
        "meta_epoch": "2025-12-08T14:00:01.999872",
        "meta_mean_motion": 15.41825241,
        "meta_eccentricity": 0.00012591,
        "meta_inclination": 43.0006,
        "meta_ra_of_asc_node": 71.6699,
        "meta_arg_of_pericenter": 280.7038,
        "meta_mean_anomaly": 143.3309,
        "meta_ephemeris_type": 0,
        "meta_classification_type": "U",
        "meta_norad_cat_id": 66435,
        "meta_element_set_no": 999,
        "meta_rev_at_epoch": 561,
        "meta_bstar": -0.039997679,
        "meta_mean_motion_dot": -0.01560645,
        "meta_mean_motion_ddot": 0,
        "tle_line1": "1 66435U 25259P   25342.58335648 -.01560645  00000+0 -39998-1 0  9992",
        "tle_line2": "2 66435  43.0006  71.6699 0001259 280.7038 143.3309 15.41825241  5610"
      },
      "geometry": {
        "type": "Point",
        "coordinates": [
          -164.2900954688568,
          36.8935933138097
        ]
      }
    },
    {
      "type": "Feature",
      "properties": {
        "norad_id": 66436,
        "name": "STARLINK-35501",
        "group": "last-30-days",
        "lat": 25.2279093224155,
        "lon": -141.05825794147594,
        "alt_km": 434.56248561023676,
        "timestamp": "2025-12-08T23:34:02.738610+00:00",
        "meta_object_name": "STARLINK-35501",
        "meta_object_id": "2025-259Q",
        "meta_epoch": "2025-12-08T14:00:01.999872",
        "meta_mean_motion": 15.44643841,
        "meta_eccentricity": 0.00013854,
        "meta_inclination": 43.0003,
        "meta_ra_of_asc_node": 71.6218,
        "meta_arg_of_pericenter": 286.6622,
        "meta_mean_anomaly": 156.6247,
        "meta_ephemeris_type": 0,
        "meta_classification_type": "U",
        "meta_norad_cat_id": 66436,
        "meta_element_set_no": 999,
        "meta_rev_at_epoch": 561,
        "meta_bstar": -0.048236932,
        "meta_mean_motion_dot": -0.02045928,
        "meta_mean_motion_ddot": 0,
        "tle_line1": "1 66436U 25259Q   25342.58335648 -.02045928  00000+0 -48237-1 0  9992",
        "tle_line2": "2 66436  43.0003  71.6218 0001385 286.6622 156.6247 15.44643841  5614"
      },
      "geometry": {
        "type": "Point",
        "coordinates": [
          -141.05825794147594,
          25.2279093224155
        ]
      }
    },
    {
      "type": "Feature",
      "properties": {
        "norad_id": 66437,
        "name": "STARLINK-35474",
        "group": "last-30-days",
        "lat": 19.460240468952634,
        "lon": -132.9917314618603,
        "alt_km": 431.456563140091,
        "timestamp": "2025-12-08T23:34:02.738621+00:00",
        "meta_object_name": "STARLINK-35474",
        "meta_object_id": "2025-259R",
        "meta_epoch": "2025-12-08T14:00:01.999872",
        "meta_mean_motion": 15.45971191,
        "meta_eccentricity": 0.00014251,
        "meta_inclination": 43.0008,
        "meta_ra_of_asc_node": 71.6032,
        "meta_arg_of_pericenter": 286.1667,
        "meta_mean_anomaly": 164.6411,
        "meta_ephemeris_type": 0,
        "meta_classification_type": "U",
        "meta_norad_cat_id": 66437,
        "meta_element_set_no": 999,
        "meta_rev_at_epoch": 561,
        "meta_bstar": -0.045859678,
        "meta_mean_motion_dot": -0.02037581,
        "meta_mean_motion_ddot": 0,
        "tle_line1": "1 66437U 25259R   25342.58335648 -.02037581  00000+0 -45860-1 0  9998",
        "tle_line2": "2 66437  43.0008  71.6032 0001425 286.1667 164.6411 15.45971191  5618"
      },
      "geometry": {
        "type": "Point",
        "coordinates": [
          -132.9917314618603,
          19.460240468952634
        ]
      }
    },
    {
      "type": "Feature",
      "properties": {
        "norad_id": 66438,
        "name": "STARLINK-34681",
        "group": "last-30-days",
        "lat": 7.552532524909801,
        "lon": -118.93798237677639,
        "alt_km": 415.00529454704156,
        "timestamp": "2025-12-08T23:34:02.738631+00:00",
        "meta_object_name": "STARLINK-34681",
        "meta_object_id": "2025-259S",
        "meta_epoch": "2025-12-07T23:39:13.067424",
        "meta_mean_motion": 15.5049474,
        "meta_eccentricity": 0.00027185,
        "meta_inclination": 42.9984,
        "meta_ra_of_asc_node": 75.0723,
        "meta_arg_of_pericenter": 311.9192,
        "meta_mean_anomaly": 48.1436,
        "meta_ephemeris_type": 0,
        "meta_classification_type": "U",
        "meta_norad_cat_id": 66438,
        "meta_element_set_no": 999,
        "meta_rev_at_epoch": 532,
        "meta_bstar": 0.0016901486,
        "meta_mean_motion_dot": 0.00099791,
        "meta_mean_motion_ddot": 0,
        "tle_line1": "1 66438U 25259S   25341.98556791  .00099791  00000+0  16901-2 0  9998",
        "tle_line2": "2 66438  42.9984  75.0723 0002718 311.9192  48.1436 15.50494740  5328"
      },
      "geometry": {
        "type": "Point",
        "coordinates": [
          -118.93798237677639,
          7.552532524909801
        ]
      }
    }
  ]
}